GLOBALSTAR M068         
1 32266U 07048D   25325.90376117 -.00000061  00000+0  23928-3 0  9993
2 32266  51.9859 181.4798 0001998 101.5779   1.8038 12.62833772837484
GLOBALSTAR M079         
1 37188U 10054A   25325.10889954 -.00000086  00000+0  98837-4 0  9991
2 37188  52.0062  22.0911 0000202 156.8451 215.6160 12.62268619696277
GLOBALSTAR M074         
1 37189U 10054B   25325.56101291 -.00000080  00000+0  13063-3 0  9994
2 37189  52.0048  20.0125 0000385  92.2592  55.7575 12.62263608696937
GLOBALSTAR M076         
1 37190U 10054C   25325.49997860 -.00000089  00000+0  82292-4 0  9993
2 37190  52.0054  20.3853 0000222  75.9743  33.1094 12.62267454696640
GLOBALSTAR M077         
1 37191U 10054D   25324.48812203 -.00000081  00000+0  52680-4 0  9999
2 37191  52.0123 350.3823 0008904  96.4865  78.3499 11.95391638696725
GLOBALSTAR M075         
1 37192U 10054E   25325.59075037 -.00000103  00000+0  55650-5 0  9995
2 37192  51.9960  62.2753 0000675 114.3444 348.8219 12.62269744695725
GLOBALSTAR M073         
1 37193U 10054F   25325.60272332 -.00000089  00000+0  81612-4 0  9994
2 37193  52.0080 336.1831 0000186  22.7963 133.0489 12.62264432697719
GLOBALSTAR M083         
1 37739U 11033A   25325.38062294 -.00000091  00000+0  73221-4 0  9997
2 37739  51.9866 285.3715 0000378  40.5895 127.3857 12.62264569666707
GLOBALSTAR M088         
1 37740U 11033B   25325.81001873 -.00000066  00000+0  20843-3 0  9996
2 37740  52.0194 189.9901 0001092  83.2608 355.8609 12.62270403662300
GLOBALSTAR M091         
1 37741U 11033C   25325.82853325 -.00000099  00000+0  28783-4 0  9993
2 37741  51.9963 153.2049 0001037 102.9763   0.1042 12.62261966663092
GLOBALSTAR M085         
1 37742U 11033D   25325.82867737 -.00000119  00000+0 -85894-4 0  9996
2 37742  52.0112 104.3132 0000895 123.3345  40.8652 12.62266839663604
GLOBALSTAR M081         
1 37743U 11033E   25325.85515426 -.00000121  00000+0 -96239-4 0  9993
2 37743  51.9944 106.9041 0000747 110.4281  54.3981 12.62270588663752
GLOBALSTAR M089         
1 37744U 11033F   25325.48007134 -.00000114  00000+0 -58457-4 0  9997
2 37744  51.9942  62.2434 0000683  95.2650 345.3285 12.62272481664553
GLOBALSTAR M084         
1 38040U 11080A   25325.87573243 -.00000087  00000+0  92028-4 0  9991
2 38040  52.0020 288.4135 0000786  41.0115 337.2208 12.62265500642589
GLOBALSTAR M080         
1 38041U 11080B   25325.32529169 -.00000089  00000+0  83762-4 0  9997
2 38041  52.0071 291.7354 0000599 105.8165  59.6952 12.62271235642631
GLOBALSTAR M082         
1 38042U 11080C   25325.17720763 -.00000076  00000+0  15225-3 0  9998
2 38042  52.0075 247.6647 0000695  89.0243  53.1206 12.62265088643325
GLOBALSTAR M092         
1 38043U 11080D   25325.21612948 -.00000102  00000+0  94724-5 0  9992
2 38043  52.0106 337.9323 0000336  79.5381 358.9827 12.62267756641781
GLOBALSTAR M090         
1 38044U 11080E   25325.81379484 -.00000068  00000+0  19859-3 0  9999
2 38044  52.0122 239.6167 0000643  64.9148 330.3841 12.62264379643526
GLOBALSTAR M086         
1 38045U 11080F   25325.83992521 -.00000068  00000+0  19685-3 0  9992
2 38045  51.9894 239.8042 0000937 350.8219  51.6396 12.62279875643476
GLOBALSTAR M097         
1 39072U 13005A   25325.70010997 -.00000093  00000+0  58669-4 0  9990
2 39072  52.0015 154.9451 0000839  92.0194 268.0769 12.62267605590706
GLOBALSTAR M093         
1 39073U 13005B   25325.83243762 -.00000098  00000+0  30731-4 0  9998
2 39073  52.0076 147.8109 0000698 104.6408 255.4536 12.62270764590674
GLOBALSTAR M094         
1 39074U 13005C   25325.59464726 -.00000108  00000+0 -24675-4 0  9990
2 39074  51.9970  62.8554 0000523 136.7168 223.3740 12.62264935592252
GLOBALSTAR M096         
1 39075U 13005D   25325.76613193 -.00000123  00000+0 -10710-3 0  9995
2 39075  52.0055 110.9705 0000824 119.4962 240.5987 12.62268930591191
GLOBALSTAR M078         
1 39076U 13005E   25325.81941079 -.00000134  00000+0 -17061-3 0  9997
2 39076  51.9858 195.1096 0001264 125.9389 234.1595 12.62271657589824
GLOBALSTAR M095         
1 39077U 13005F   25325.84553404 -.00000067  00000+0  20268-3 0  9999
2 39077  52.0060 192.3391 0000805 105.7523 254.3432 12.62266690589684
GLOBALSTAR M087         
1 52888U 22064A   25325.46253843 -.00000096  00000+0  45200-4 0  9997
2 52888  52.0013 334.8596 0000134 117.7704 242.3176 12.62260584164908
